[{"OBJECT_NAME":"STARLINK-5131","OBJECT_ID":"2022-125AJ","EPOCH":"2026-03-09T16:22:05.283840","MEAN_MOTION":15.08840974,"ECCENTRICITY":0.00012236,"INCLINATION":53.2168,"RA_OF_ASC_NODE":213.9943,"ARG_OF_PERICENTER":84.8018,"MEAN_ANOMALY":275.3113,"EPHEMERIS_TYPE":0,"CLASSIFICATION_TYPE":"U","NORAD_CAT_ID":53996,"ELEMENT_SET_NO":999,"REV_AT_EPOCH":18946,"BSTAR":-5.2875469e-5,"MEAN_MOTION_DOT":-1.129e-5,"MEAN_MOTION_DDOT":0},{"OBJECT_NAME":"FENGYUN 1C DEB","OBJECT_ID":"1999-025AKL","EPOCH":"2026-03-09T14:47:46.011264","MEAN_MOTION":14.88806868,"ECCENTRICITY":0.0088849,"INCLINATION":98.9015,"RA_OF_ASC_NODE":300.2677,"ARG_OF_PERICENTER":245.5096,"MEAN_ANOMALY":169.9787,"EPHEMERIS_TYPE":0,"CLASSIFICATION_TYPE":"U","NORAD_CAT_ID":30546,"ELEMENT_SET_NO":999,"REV_AT_EPOCH":1749,"BSTAR":0.00087367,"MEAN_MOTION_DOT":8.737e-5,"MEAN_MOTION_DDOT":0}]
